ZK-1A R/B               
1 66411U 25256C   25337.18639871  .00017696  00000+0  77100-3 0  9997
2 66411  98.3250  44.2737 0229655 276.9152  80.5997 15.01610086  3611
HULIANWANG DIGUI 13A    
1 66412U 25258A   25337.37142013  .00000103  00000+0  11436-3 0  9993
2 66412  50.0041 301.4032 0014089 324.7916  35.2065 14.23491652  3324
HULIANWANG DIGUI 13B    
1 66413U 25258B   25337.30887958  .00000075  00000+0  10248-3 0  9999
2 66413  50.0005 301.7290 0013400 325.1435  34.8599 14.23482429  3319
HULIANWANG DIGUI 13C    
1 66414U 25258C   25337.37592780  .00000131  00000+0  12688-3 0  9996
2 66414  50.0048 301.4316 0013568 323.7706  36.2287 14.23508318  3320
HULIANWANG DIGUI 13D    
1 66415U 25258D   25337.37001410  .00000172  00000+0  14451-3 0  9997
2 66415  50.0039 301.3964 0013363 330.2676  29.7476 14.23496659  3322
HULIANWANG DIGUI 13E    
1 66416U 25258E   25336.18079358  .00000080  00000+0  10446-3 0  9990
2 66416  50.0045 306.4445 0012751 327.4493  32.5632 14.23468154  3151
HULIANWANG DIGUI 13F    
1 66417U 25258F   25337.30269072  .00000157  00000+0  13837-3 0  9992
2 66417  49.9997 301.6896 0012352 329.5642  30.4553 14.23477387  3313
HULIANWANG DIGUI 13G    
1 66418U 25258G   25337.36870144  .00000172  00000+0  14481-3 0  9990
2 66418  50.0011 301.3731 0012477 325.6724  34.3381 14.23488734  3326
HULIANWANG DIGUI 13H    
1 66419U 25258H   25337.36722221  .00000170  00000+0  14364-3 0  9991
2 66419  50.0006 301.3619 0012103 326.8857  33.1297 14.23505917  3328
HULIANWANG DIGUI 13J    
1 66420U 25258J   25337.36606329  .00000166  00000+0  14212-3 0  9990
2 66420  50.0022 301.3663 0011446 333.8854  26.1480 14.23473566  3310
CZ-12 R/B               
1 66421U 25258K   25337.36657913 -.00000056  00000+0  33661-4 0  9995
2 66421  49.9963 298.6189 0064579 215.7159 143.9433 14.42316353  3366
STARLINK-35617          
1 66422U 25259A   25337.33335648 -.02061807  00000+0 -42710-1 0  9998
2 66422  43.0001 102.3628 0001331 264.9576 340.6705 15.48379535  4761
