CCSDS_OMM_VERS = 2.0
CREATION_DATE  = 
ORIGINATOR     = 

OBJECT_NAME    = ZK-1A R/B
OBJECT_ID      = 2025-256C
CENTER_NAME    = EARTH
REF_FRAME      = TEME
TIME_SYSTEM    = UTC
MEAN_ELEMENT_THEORY = SGP/SGP4

EPOCH          = 2025-12-03T04:28:24.848544
MEAN_MOTION    = 15.01610086
ECCENTRICITY   = .02296558
INCLINATION    = 98.3250
RA_OF_ASC_NODE = 44.2737
ARG_OF_PERICENTER = 276.9152
MEAN_ANOMALY   = 80.5997

EPHEMERIS_TYPE = 0
CLASSIFICATION_TYPE = U
NORAD_CAT_ID   = 66411
ELEMENT_SET_NO = 999
REV_AT_EPOCH   = 361
BSTAR          = .77100122E-3
MEAN_MOTION_DOT = .17696E-3
MEAN_MOTION_DDOT = 0

CCSDS_OMM_VERS = 2.0
CREATION_DATE  = 
ORIGINATOR     = 

OBJECT_NAME    = HULIANWANG DIGUI 13A
OBJECT_ID      = 2025-258A
CENTER_NAME    = EARTH
REF_FRAME      = TEME
TIME_SYSTEM    = UTC
MEAN_ELEMENT_THEORY = SGP/SGP4

EPOCH          = 2025-12-03T08:54:50.699232
MEAN_MOTION    = 14.23491652
ECCENTRICITY   = .00140899
INCLINATION    = 50.0041
RA_OF_ASC_NODE = 301.4032
ARG_OF_PERICENTER = 324.7916
MEAN_ANOMALY   = 35.2065

EPHEMERIS_TYPE = 0
CLASSIFICATION_TYPE = U
NORAD_CAT_ID   = 66412
ELEMENT_SET_NO = 999
REV_AT_EPOCH   = 332
BSTAR          = .11435955E-3
MEAN_MOTION_DOT = .103E-5
MEAN_MOTION_DDOT = 0

CCSDS_OMM_VERS = 2.0
CREATION_DATE  = 
ORIGINATOR     = 

OBJECT_NAME    = HULIANWANG DIGUI 13B
OBJECT_ID      = 2025-258B
CENTER_NAME    = EARTH
REF_FRAME      = TEME
TIME_SYSTEM    = UTC
MEAN_ELEMENT_THEORY = SGP/SGP4

EPOCH          = 2025-12-03T07:24:47.195712
MEAN_MOTION    = 14.23482429
ECCENTRICITY   = .00134003
INCLINATION    = 50.0005
RA_OF_ASC_NODE = 301.7290
ARG_OF_PERICENTER = 325.1435
MEAN_ANOMALY   = 34.8599

EPHEMERIS_TYPE = 0
CLASSIFICATION_TYPE = U
NORAD_CAT_ID   = 66413
ELEMENT_SET_NO = 999
REV_AT_EPOCH   = 331
BSTAR          = .10247727E-3
MEAN_MOTION_DOT = .75E-6
MEAN_MOTION_DDOT = 0

CCSDS_OMM_VERS = 2.0
CREATION_DATE  = 
ORIGINATOR     = 

OBJECT_NAME    = HULIANWANG DIGUI 13C
OBJECT_ID      = 2025-258C
CENTER_NAME    = EARTH
REF_FRAME      = TEME
TIME_SYSTEM    = UTC
MEAN_ELEMENT_THEORY = SGP/SGP4

EPOCH          = 2025-12-03T09:01:20.161920
MEAN_MOTION    = 14.23508318
ECCENTRICITY   = .0013568
INCLINATION    = 50.0048
RA_OF_ASC_NODE = 301.4316
ARG_OF_PERICENTER = 323.7706
MEAN_ANOMALY   = 36.2287

EPHEMERIS_TYPE = 0
CLASSIFICATION_TYPE = U
NORAD_CAT_ID   = 66414
ELEMENT_SET_NO = 999
REV_AT_EPOCH   = 332
BSTAR          = .12688285E-3
MEAN_MOTION_DOT = .131E-5
MEAN_MOTION_DDOT = 0

CCSDS_OMM_VERS = 2.0
CREATION_DATE  = 
ORIGINATOR     = 

OBJECT_NAME    = HULIANWANG DIGUI 13D
OBJECT_ID      = 2025-258D
CENTER_NAME    = EARTH
REF_FRAME      = TEME
TIME_SYSTEM    = UTC
MEAN_ELEMENT_THEORY = SGP/SGP4

EPOCH          = 2025-12-03T08:52:49.218240
MEAN_MOTION    = 14.23496659
ECCENTRICITY   = .00133639
INCLINATION    = 50.0039
RA_OF_ASC_NODE = 301.3964
ARG_OF_PERICENTER = 330.2676
MEAN_ANOMALY   = 29.7476

EPHEMERIS_TYPE = 0
CLASSIFICATION_TYPE = U
NORAD_CAT_ID   = 66415
ELEMENT_SET_NO = 999
REV_AT_EPOCH   = 332
BSTAR          = .14450912E-3
MEAN_MOTION_DOT = .172E-5
MEAN_MOTION_DDOT = 0

CCSDS_OMM_VERS = 2.0
CREATION_DATE  = 
ORIGINATOR     = 

OBJECT_NAME    = HULIANWANG DIGUI 13E
OBJECT_ID      = 2025-258E
CENTER_NAME    = EARTH
REF_FRAME      = TEME
TIME_SYSTEM    = UTC
MEAN_ELEMENT_THEORY = SGP/SGP4

EPOCH          = 2025-12-02T04:20:20.565312
MEAN_MOTION    = 14.23468154
ECCENTRICITY   = .0012751
INCLINATION    = 50.0045
RA_OF_ASC_NODE = 306.4445
ARG_OF_PERICENTER = 327.4493
MEAN_ANOMALY   = 32.5632

EPHEMERIS_TYPE = 0
CLASSIFICATION_TYPE = U
NORAD_CAT_ID   = 66416
ELEMENT_SET_NO = 999
REV_AT_EPOCH   = 315
BSTAR          = .10445686E-3
MEAN_MOTION_DOT = .8E-6
MEAN_MOTION_DDOT = 0

CCSDS_OMM_VERS = 2.0
CREATION_DATE  = 
ORIGINATOR     = 

OBJECT_NAME    = HULIANWANG DIGUI 13F
OBJECT_ID      = 2025-258F
CENTER_NAME    = EARTH
REF_FRAME      = TEME
TIME_SYSTEM    = UTC
MEAN_ELEMENT_THEORY = SGP/SGP4

EPOCH          = 2025-12-03T07:15:52.478208
MEAN_MOTION    = 14.23477387
ECCENTRICITY   = .00123527
INCLINATION    = 49.9997
RA_OF_ASC_NODE = 301.6896
ARG_OF_PERICENTER = 329.5642
MEAN_ANOMALY   = 30.4553

EPHEMERIS_TYPE = 0
CLASSIFICATION_TYPE = U
NORAD_CAT_ID   = 66417
ELEMENT_SET_NO = 999
REV_AT_EPOCH   = 331
BSTAR          = .1383684E-3
MEAN_MOTION_DOT = .157E-5
MEAN_MOTION_DDOT = 0

CCSDS_OMM_VERS = 2.0
CREATION_DATE  = 
ORIGINATOR     = 

OBJECT_NAME    = HULIANWANG DIGUI 13G
OBJECT_ID      = 2025-258G
CENTER_NAME    = EARTH
REF_FRAME      = TEME
TIME_SYSTEM    = UTC
MEAN_ELEMENT_THEORY = SGP/SGP4

EPOCH          = 2025-12-03T08:50:55.804416
MEAN_MOTION    = 14.23488734
ECCENTRICITY   = .00124771
INCLINATION    = 50.0011
RA_OF_ASC_NODE = 301.3731
ARG_OF_PERICENTER = 325.6724
MEAN_ANOMALY   = 34.3381

EPHEMERIS_TYPE = 0
CLASSIFICATION_TYPE = U
NORAD_CAT_ID   = 66418
ELEMENT_SET_NO = 999
REV_AT_EPOCH   = 332
BSTAR          = .14481377E-3
MEAN_MOTION_DOT = .172E-5
MEAN_MOTION_DDOT = 0

CCSDS_OMM_VERS = 2.0
CREATION_DATE  = 
ORIGINATOR     = 

OBJECT_NAME    = HULIANWANG DIGUI 13H
OBJECT_ID      = 2025-258H
CENTER_NAME    = EARTH
REF_FRAME      = TEME
TIME_SYSTEM    = UTC
MEAN_ELEMENT_THEORY = SGP/SGP4

EPOCH          = 2025-12-03T08:48:47.998944
MEAN_MOTION    = 14.23505917
ECCENTRICITY   = .00121033
INCLINATION    = 50.0006
RA_OF_ASC_NODE = 301.3619
ARG_OF_PERICENTER = 326.8857
MEAN_ANOMALY   = 33.1297

EPHEMERIS_TYPE = 0
CLASSIFICATION_TYPE = U
NORAD_CAT_ID   = 66419
ELEMENT_SET_NO = 999
REV_AT_EPOCH   = 332
BSTAR          = .14363512E-3
MEAN_MOTION_DOT = .17E-5
MEAN_MOTION_DDOT = 0

CCSDS_OMM_VERS = 2.0
CREATION_DATE  = 
ORIGINATOR     = 

OBJECT_NAME    = HULIANWANG DIGUI 13J
OBJECT_ID      = 2025-258J
CENTER_NAME    = EARTH
REF_FRAME      = TEME
TIME_SYSTEM    = UTC
MEAN_ELEMENT_THEORY = SGP/SGP4

EPOCH          = 2025-12-03T08:47:07.868256
MEAN_MOTION    = 14.23473566
ECCENTRICITY   = .00114462
INCLINATION    = 50.0022
RA_OF_ASC_NODE = 301.3663
ARG_OF_PERICENTER = 333.8854
MEAN_ANOMALY   = 26.1480

EPHEMERIS_TYPE = 0
CLASSIFICATION_TYPE = U
NORAD_CAT_ID   = 66420
ELEMENT_SET_NO = 999
REV_AT_EPOCH   = 331
BSTAR          = .14211681E-3
MEAN_MOTION_DOT = .166E-5
MEAN_MOTION_DDOT = 0

CCSDS_OMM_VERS = 2.0
CREATION_DATE  = 
ORIGINATOR     = 

OBJECT_NAME    = CZ-12 R/B
OBJECT_ID      = 2025-258K
CENTER_NAME    = EARTH
REF_FRAME      = TEME
TIME_SYSTEM    = UTC
MEAN_ELEMENT_THEORY = SGP/SGP4

EPOCH          = 2025-12-03T08:47:52.436832
MEAN_MOTION    = 14.42316353
ECCENTRICITY   = .00645794
INCLINATION    = 49.9963
RA_OF_ASC_NODE = 298.6189
ARG_OF_PERICENTER = 215.7159
MEAN_ANOMALY   = 143.9433

EPHEMERIS_TYPE = 0
CLASSIFICATION_TYPE = U
NORAD_CAT_ID   = 66421
ELEMENT_SET_NO = 999
REV_AT_EPOCH   = 336
BSTAR          = .33660508E-4
MEAN_MOTION_DOT = -.56E-6
MEAN_MOTION_DDOT = 0

CCSDS_OMM_VERS = 2.0
CREATION_DATE  = 
ORIGINATOR     = 

OBJECT_NAME    = STARLINK-35617
OBJECT_ID      = 2025-259A
CENTER_NAME    = EARTH
REF_FRAME      = TEME
TIME_SYSTEM    = UTC
MEAN_ELEMENT_THEORY = SGP/SGP4

EPOCH          = 2025-12-03T08:00:01.999872
MEAN_MOTION    = 15.48379535
ECCENTRICITY   = .00013317
INCLINATION    = 43.0001
RA_OF_ASC_NODE = 102.3628
ARG_OF_PERICENTER = 264.9576
MEAN_ANOMALY   = 340.6705

EPHEMERIS_TYPE = 0
CLASSIFICATION_TYPE = U
NORAD_CAT_ID   = 66422
ELEMENT_SET_NO = 999
REV_AT_EPOCH   = 476
BSTAR          = -.42710248E-1
MEAN_MOTION_DOT = -.2061807E-1
MEAN_MOTION_DDOT = 0

